      2.10          N: GNSS NAV DATA                        RINEX VERSION / TYPE
fic2rin                                 07/20/2024 00:59:02 PGM / RUN BY / DATE
                                                            END OF HEADER
5  24  7 19  1 59 44.0 -.180221628398D-03 -.125055521494D-11  .000000000000D+00
     .100000000000D+01 -.125375000000D+03  .410052794631D-08 -.160573214763D+01
    -.627897679806D-05  .595360796433D-02  .527687370777D-05  .515364649010D+04
     .439184000000D+06  .819563865662D-07  .214250240222D+01  .838190317154D-07
     .972068075634D+00  .276656250000D+03  .129138894052D+01 -.791675833619D-08
    -.128576784311D-10  .100000000000D+01  .232300000000D+04  .000000000000D+00
     .240000000000D+01  .000000000000D+00 -.107102096081D-07  .100000000000D+01
     .432000000000D+06  .400000000000D+01
19 24  7 19 15 59 44.0  .512687955052D-03  .534328137292D-11  .000000000000D+00
     .170000000000D+02  .120937500000D+03  .422374736460D-08  .104518651916D+01
     .633858144283D-05  .998106971383D-02  .836886465549D-05  .515372286987D+04
     .489584000000D+06  .225380063057D-06  .199952014655D+00  .186264514923D-08
     .967729179108D+00  .220312500000D+03  .259727206960D+01 -.778746723641D-08
     .835749098019D-10  .100000000000D+01  .232300000000D+04  .000000000000D+00
     .240000000000D+01  .000000000000D+00 -.153668224812D-07  .170000000000D+02
     .482400000000D+06  .400000000000D+01
2  24  7 19 16  0  0.0 -.395951326936D-03  .738964445191D-11  .000000000000D+00
     .790000000000D+02  .744687500000D+02  .476019828137D-08 -.682579258589D+00
     .376254320145D-05  .160149506992D-01  .843778252602D-06  .515369316864D+04
     .489600000000D+06 -.230967998505D-06  .105795876245D+01 -.782310962677D-07
     .967137472632D+00  .371718750000D+03 -.115889193659D+01 -.868929051526D-08
     .357514891930D-09  .100000000000D+01  .232300000000D+04  .000000000000D+00
     .340000000000D+01  .000000000000D+00 -.176951289177D-07  .790000000000D+02
     .482400000000D+06  .400000000000D+01
1  24  7 19 16  0  0.0  .239400658756D-03 -.738964445191D-11  .000000000000D+00
     .940000000000D+02  .109687500000D+02  .595524805999D-08  .536569458843D+00
     .534579157829D-06  .133266522316D-01  .833347439766D-05  .515359192467D+04
     .489600000000D+06 -.167638063431D-06 -.935693474863D+00  .614672899246D-07
     .953863490872D+00  .217406250000D+03  .103345678495D+01 -.808569394447D-08
    -.616811406957D-09  .100000000000D+01  .232300000000D+04  .000000000000D+00
     .240000000000D+01  .630000000000D+02 -.195577740669D-07  .940000000000D+02
     .482400000000D+06  .400000000000D+01
5  24  7 19 16  0  0.0 -.180286820978D-03 -.125055521494D-11  .000000000000D+00
     .760000000000D+02 -.120062500000D+03  .432268005698D-08 -.535651989770D+00
    -.619702041149D-05  .595570914447D-02  .400096178055D-05  .515364881897D+04
     .489600000000D+06 -.912696123123D-07  .214210117500D+01 -.186264514923D-08
     .972055969987D+00  .305593750000D+03  .129180768472D+01 -.818391232137D-08
    -.294655130712D-09  .100000000000D+01  .232300000000D+04  .000000000000D+00
     .240000000000D+01  .000000000000D+00 -.107102096081D-07  .760000000000D+02
     .482400000000D+06  .400000000000D+01
3  24  7 19 16  0  0.0  .464886426926D-03  .162572177942D-10  .000000000000D+00
     .450000000000D+02 -.152187500000D+03  .387373278509D-08  .204493746676D+01
    -.810250639915D-05  .569461320993D-02  .415556132793D-05  .515370095253D+04
     .489600000000D+06 -.428408384323D-07  .219414882615D+01 -.894069671631D-07
     .985151013460D+00  .312250000000D+03  .112860158139D+01 -.783496921506D-08
    -.312155859687D-09  .100000000000D+01  .232300000000D+04  .000000000000D+00
     .240000000000D+01  .000000000000D+00  .139698386192D-08  .450000000000D+02
     .482400000000D+06  .400000000000D+01
7  24  7 19 16  0  0.0 -.668624415994D-04  .727595761418D-11  .000000000000D+00
     .340000000000D+02  .104687500000D+02  .486555981295D-08  .256009647436D+01
     .307336449623D-06  .186625546776D-01  .564381480217D-05  .515361384392D+04
     .489600000000D+06  .115483999252D-06 -.199893722929D+01 -.253319740295D-06
     .949995823665D+00  .261968750000D+03 -.210923405052D+01 -.774532262378D-08
     .277154401736D-09  .100000000000D+01  .232300000000D+04  .000000000000D+00
     .240000000000D+01  .000000000000D+00 -.111758708954D-07  .340000000000D+02
     .482400000000D+06  .400000000000D+01
6  24  7 19 16  0  0.0  .151916872710D-03 -.230784280575D-10  .000000000000D+00
     .114000000000D+03  .591562500000D+02  .421696136765D-08 -.283063826255D+01
     .314787030220D-05  .292774406262D-02  .583007931709D-06  .515365683937D+04
     .489600000000D+06 -.335276126862D-07  .115746590746D+01  .856816768646D-07
     .989532382887D+00  .383781250000D+03 -.710987800821D+00 -.805212111745D-08
     .198936857947D-09  .100000000000D+01  .232300000000D+04  .000000000000D+00
     .240000000000D+01  .000000000000D+00  .372529029846D-08  .114000000000D+03
     .482400000000D+06  .400000000000D+01
4  24  7 19 16  0  0.0  .407011248171D-03  .773070496507D-11  .000000000000D+00
     .220000000000D+02 -.634062500000D+02  .403088218814D-08 -.121159679198D+01
    -.332854688168D-05  .290848896839D-02  .109542161226D-04  .515372875595D+04
     .489600000000D+06  .186264514923D-07 -.301119938584D+01 -.409781932831D-07
     .965734349866D+00  .172312500000D+03 -.297099449542D+01 -.753995692661D-08
     .388230457071D-09  .100000000000D+01  .232300000000D+04  .000000000000D+00
     .240000000000D+01  .000000000000D+00 -.465661287308D-08  .534000000000D+03
     .482400000000D+06  .400000000000D+01
30 24  7 19 16  0  0.0 -.355064403266D-03  .659383658785D-11  .000000000000D+00
     .300000000000D+01  .130625000000D+02  .534557980771D-08  .240523435397D+01
     .527128577232D-06  .718157691881D-02  .564381480217D-05  .515360008812D+04
     .489600000000D+06 -.745058059692D-07 -.199913096646D+01 -.135973095894D-06
     .935144111089D+00  .257218750000D+03 -.244858744703D+01 -.821677083292D-08
     .260367988229D-09  .100000000000D+01  .232300000000D+04  .000000000000D+00
     .240000000000D+01  .000000000000D+00  .419095158577D-08  .300000000000D+01
     .482400000000D+06  .400000000000D+01
22 24  7 19 16  0  0.0 -.414638780057D-04 -.454747350886D-11  .000000000000D+00
     .380000000000D+02  .571875000000D+01  .449661587353D-08 -.372501812333D+00
     .184401869774D-06  .142279781867D-01  .905804336071D-05  .515369341087D+04
     .489600000000D+06 -.324100255966D-06 -.861639420615D+00 -.115483999252D-06
     .960661700444D+00  .207968750000D+03 -.112984960558D+01 -.799068998717D-08
    -.458947688442D-09  .100000000000D+01  .232300000000D+04  .000000000000D+00
     .240000000000D+01  .000000000000D+00 -.111758708954D-07  .380000000000D+02
     .482400000000D+06  .400000000000D+01
24 24  7 19 16  0  0.0 -.483750365674D-03 -.147792889038D-11  .000000000000D+00
     .400000000000D+02  .131875000000D+02  .523057501730D-08 -.273570673031D+01
     .679865479469D-06  .155192511156D-01  .580213963985D-05  .515369765854D+04
     .489600000000D+06  .135973095894D-06 -.209693101042D+01 -.130385160446D-06
     .933782282112D+00  .252062500000D+03  .989731916136D+00 -.801426239763D-08
     .400016662300D-09  .100000000000D+01  .232300000000D+04  .000000000000D+00
     .240000000000D+01  .000000000000D+00  .232830643654D-08  .400000000000D+02
     .482400000000D+06  .400000000000D+01
27 24  7 19 16  0  0.0 -.314791686833D-04 -.795807864051D-12  .000000000000D+00
     .310000000000D+02  .137625000000D+03  .421731852539D-08 -.821297355291D+00
     .739656388760D-05  .125273884041D-01  .863149762154D-05  .515369244003D+04
     .489600000000D+06  .119209289551D-06  .871040808060D-01  .201165676117D-06
     .961774413491D+00  .216125000000D+03  .797035290508D+00 -.796497463031D-08
     .203579908492D-10  .100000000000D+01  .232300000000D+04  .000000000000D+00
     .240000000000D+01  .000000000000D+00  .186264514923D-08  .310000000000D+02
     .482400000000D+06  .400000000000D+01
31 24  7 19 16  0  0.0 -.226635020226D-03  .341060513165D-12  .000000000000D+00
     .550000000000D+02  .102187500000D+02  .494484882994D-08  .162776186965D+01
     .510364770889D-06  .105087046977D-01  .611506402493D-05  .515374339294D+04
     .489600000000D+06 -.154599547386D-06 -.197719481853D+01  .000000000000D+00
     .953942077368D+00  .264843750000D+03  .695930295170D+00 -.809962309610D-08
     .100004165575D-09  .100000000000D+01  .232300000000D+04  .000000000000D+00
     .240000000000D+01  .000000000000D+00 -.135041773319D-07  .550000000000D+02
     .482400000000D+06  .400000000000D+01
29 24  7 19 16  0  0.0 -.588729977608D-03  .193267624127D-11  .000000000000D+00
     .710000000000D+02  .128281250000D+03  .406588364609D-08 -.903525237556D+00
     .637583434582D-05  .300838018302D-02  .807829201221D-05  .515356860542D+04
     .489600000000D+06 -.186264514923D-08  .170813308066D+00 -.204890966415D-07
     .970979345667D+00  .229281250000D+03  .262054447761D+01 -.777960976626D-08
     .121790787361D-09  .100000000000D+01  .232300000000D+04  .000000000000D+00
     .240000000000D+01  .000000000000D+00 -.977888703346D-08  .710000000000D+02
     .482400000000D+06  .400000000000D+01
32 24  7 19 16  0  0.0 -.611302908510D-03  .216004991671D-11  .000000000000D+00
     .940000000000D+02 -.617187500000D+02  .427696386700D-08 -.163374694400D+00
    -.318884849548D-05  .779967429116D-02  .108182430267D-04  .515370469284D+04
     .489600000000D+06 -.391155481339D-07 -.305628146374D+01  .145286321640D-06
     .962768605303D+00  .173062500000D+03 -.213124069354D+01 -.784318384295D-08
     .372515516767D-09  .100000000000D+01  .232300000000D+04  .000000000000D+00
     .240000000000D+01  .000000000000D+00  .931322574615D-09  .940000000000D+02
     .482400000000D+06  .400000000000D+01
